[{"OBJECT_NAME":"TIANQI-33","OBJECT_ID":"2024-245A","EPOCH":"2026-03-09T23:40:08.404896","MEAN_MOTION":13.99170744,"ECCENTRICITY":0.00094142,"INCLINATION":44.9842,"RA_OF_ASC_NODE":43.422,"ARG_OF_PERICENTER":270.4695,"MEAN_ANOMALY":89.5059,"EPHEMERIS_TYPE":0,"CLASSIFICATION_TYPE":"U","NORAD_CAT_ID":62365,"ELEMENT_SET_NO":999,"REV_AT_EPOCH":6246,"BSTAR":0.00013765247,"MEAN_MOTION_DOT":7.2e-7,"MEAN_MOTION_DDOT":0},{"OBJECT_NAME":"COSMOS 1275 DEB","OBJECT_ID":"1981-053MJ","EPOCH":"2026-03-09T10:16:29.667360","MEAN_MOTION":13.80581465,"ECCENTRICITY":0.01005547,"INCLINATION":82.9901,"RA_OF_ASC_NODE":210.453,"ARG_OF_PERICENTER":39.6559,"MEAN_ANOMALY":15.9559,"EPHEMERIS_TYPE":0,"CLASSIFICATION_TYPE":"U","NORAD_CAT_ID":20087,"ELEMENT_SET_NO":999,"REV_AT_EPOCH":84075,"BSTAR":0.0014307243,"MEAN_MOTION_DOT":1.573e-5,"MEAN_MOTION_DDOT":0}]
